{"type": "FeatureCollection", "features": [{"type": "Feature", "id": "LINK (101,1001,1002)", "geometry": {"type": "LineString", "coordinates": [[14.41, 50.09, 1.0], [14.41084, 50.09, 0.0], [14.4116, 50.09, 1.0]]}, "properties": {"NO": 101, "FROMNODENO": 1001, "TONODENO": 1002, "TYPENO": 74, "TSYSSET": "1.O,2.S,3.T,4.B", "LENGTH": "0.180km", "NUMLANES": 1, "CAPPRT": 15000, "V0PRT": "50km/h", "VOLVEHPRT(AP)": 4200.0, "R_NO": 101, "R_FROMNODENO": 1002, "R_TONODENO": 1001, "R_TYPENO": 74, "R_TSYSSET": "1.O,2.S,3.T,4.B", "R_LENGTH": "0.180km", "R_NUMLANES": 1, "R_CAPPRT": 15000, "R_V0PRT": "50km/h", "R_VOLVEHPRT(AP)": 3800.0}}, {"type": "Feature", "id": "LINK (102,1001,1005)", "geometry": {"type": "LineString", "coordinates": [[14.41, 50.09, 1.0], [14.41004, 50.090496, 0.0], [14.41, 50.090992, 1.0]]}, "properties": {"NO": 102, "FROMNODENO": 1001, "TONODENO": 1005, "TYPENO": 74, "TSYSSET": "1.O,2.S,3.T,4.B", "LENGTH": "0.180km", "NUMLANES": 1, "CAPPRT": 15000, "V0PRT": "50km/h", "VOLVEHPRT(AP)": 4200.0, "R_NO": 102, "R_FROMNODENO": 1005, "R_TONODENO": 1001, "R_TYPENO": 74, "R_TSYSSET": "1.O,2.S,3.T,4.B", "R_LENGTH": "0.180km", "R_NUMLANES": 1, "R_CAPPRT": 15000, "R_V0PRT": "50km/h", "R_VOLVEHPRT(AP)": 3800.0}}, {"type": "Feature", "id": "LINK (103,1002,1003)", "geometry": {"type": "LineString", "coordinates": [[14.4116, 50.09, 1.0], [14.41244, 50.09, 0.0], [14.4132, 50.09, 1.0]]}, "properties": {"NO": 103, "FROMNODENO": 1002, "TONODENO": 1003, "TYPENO": 74, "TSYSSET": "", "LENGTH": "0.180km", "NUMLANES": 0, "CAPPRT": 15000, "V0PRT": "50km/h", "VOLVEHPRT(AP)": 4200.0, "R_NO": 103, "R_FROMNODENO": 1003, "R_TONODENO": 1002, "R_TYPENO": 74, "R_TSYSSET": "1.O,2.S,3.T,4.B", "R_LENGTH": "0.180km", "R_NUMLANES": 1, "R_CAPPRT": 15000, "R_V0PRT": "50km/h", "R_VOLVEHPRT(AP)": 3800.0}}, {"type": "Feature", "id": "LINK (104,1002,1006)", "geometry": {"type": "LineString", "coordinates": [[14.4116, 50.09, 1.0], [14.41164, 50.090496, 0.0], [14.4116, 50.090992, 1.0]]}, "properties": {"NO": 104, "FROMNODENO": 1002, "TONODENO": 1006, "TYPENO": 74, "TSYSSET": "1.O,2.S,3.T,4.B", "LENGTH": "0.180km", "NUMLANES": 1, "CAPPRT": 15000, "V0PRT": "50km/h", "VOLVEHPRT(AP)": 4200.0, "R_NO": 104, "R_FROMNODENO": 1006, "R_TONODENO": 1002, "R_TYPENO": 74, "R_TSYSSET": "1.O,2.S,3.T,4.B", "R_LENGTH": "0.180km", "R_NUMLANES": 1, "R_CAPPRT": 15000, "R_V0PRT": "50km/h", "R_VOLVEHPRT(AP)": 3800.0}}, {"type": "Feature", "id": "LINK (105,1003,1004)", "geometry": {"type": "LineString", "coordinates": [[14.4132, 50.09, 1.0], [14.41404, 50.09, 0.0], [14.4148, 50.09, 1.0]]}, "properties": {"NO": 105, "FROMNODENO": 1003, "TONODENO": 1004, "TYPENO": 74, "TSYSSET": "1.O,2.S,3.T,4.B", "LENGTH": "0.180km", "NUMLANES": 1, "CAPPRT": 15000, "V0PRT": "50km/h", "VOLVEHPRT(AP)": 4200.0, "R_NO": 105, "R_FROMNODENO": 1004, "R_TONODENO": 1003, "R_TYPENO": 74, "R_TSYSSET": "1.O,2.S,3.T,4.B", "R_LENGTH": "0.180km", "R_NUMLANES": 1, "R_CAPPRT": 15000, "R_V0PRT": "50km/h", "R_VOLVEHPRT(AP)": 3800.0}}, {"type": "Feature", "id": "LINK (106,1003,1007)", "geometry": {"type": "LineString", "coordinates": [[14.4132, 50.09, 1.0], [14.41324, 50.090496, 0.0], [14.4132, 50.090992, 1.0]]}, "properties": {"NO": 106, "FROMNODENO": 1003, "TONODENO": 1007, "TYPENO": 74, "TSYSSET": "1.O,2.S,3.T,4.B", "LENGTH": "0.180km", "NUMLANES": 1, "CAPPRT": 15000, "V0PRT": "50km/h", "VOLVEHPRT(AP)": 4200.0, "R_NO": 106, "R_FROMNODENO": 1007, "R_TONODENO": 1003, "R_TYPENO": 74, "R_TSYSSET": "1.O,2.S,3.T,4.B", "R_LENGTH": "0.180km", "R_NUMLANES": 1, "R_CAPPRT": 15000, "R_V0PRT": "50km/h", "R_VOLVEHPRT(AP)": 3800.0}}, {"type": "Feature", "id": "LINK (107,1004,1008)", "geometry": {"type": "LineString", "coordinates": [[14.4148, 50.09, 1.0], [14.41484, 50.090496, 0.0], [14.4148, 50.090992, 1.0]]}, "properties": {"NO": 107, "FROMNODENO": 1004, "TONODENO": 1008, "TYPENO": 74, "TSYSSET": "1.O,2.S,3.T,4.B", "LENGTH": "0.180km", "NUMLANES": 1, "CAPPRT": 15000, "V0PRT": "50km/h", "VOLVEHPRT(AP)": 4200.0, "R_NO": 107, "R_FROMNODENO": 1008, "R_TONODENO": 1004, "R_TYPENO": 74, "R_TSYSSET": "", "R_LENGTH": "0.180km", "R_NUMLANES": 0, "R_CAPPRT": 15000, "R_V0PRT": "50km/h", "R_VOLVEHPRT(AP)": 3800.0}}, {"type": "Feature", "id": "LINK (108,1005,1006)", "geometry": {"type": "LineString", "coordinates": [[14.41, 50.090992, 1.0], [14.41084, 50.090992, 0.0], [14.4116, 50.090992, 1.0]]}, "properties": {"NO": 108, "FROMNODENO": 1005, "TONODENO": 1006, "TYPENO": 74, "TSYSSET": "1.O,2.S,3.T,4.B", "LENGTH": "0.180km", "NUMLANES": 1, "CAPPRT": 15000, "V0PRT": "50km/h", "VOLVEHPRT(AP)": 4200.0, "R_NO": 108, "R_FROMNODENO": 1006, "R_TONODENO": 1005, "R_TYPENO": 74, "R_TSYSSET": "1.O,2.S,3.T,4.B", "R_LENGTH": "0.180km", "R_NUMLANES": 1, "R_CAPPRT": 15000, "R_V0PRT": "50km/h", "R_VOLVEHPRT(AP)": 3800.0}}, {"type": "Feature", "id": "LINK (109,1005,1009)", "geometry": {"type": "LineString", "coordinates": [[14.41, 50.090992, 1.0], [14.41004, 50.091488, 0.0], [14.41, 50.091984, 1.0]]}, "properties": {"NO": 109, "FROMNODENO": 1005, "TONODENO": 1009, "TYPENO": 74, "TSYSSET": "1.O,2.S,3.T,4.B", "LENGTH": "0.180km", "NUMLANES": 1, "CAPPRT": 15000, "V0PRT": "50km/h", "VOLVEHPRT(AP)": 4200.0, "R_NO": 109, "R_FROMNODENO": 1009, "R_TONODENO": 1005, "R_TYPENO": 74, "R_TSYSSET": "1.O,2.S,3.T,4.B", "R_LENGTH": "0.180km", "R_NUMLANES": 1, "R_CAPPRT": 15000, "R_V0PRT": "50km/h", "R_VOLVEHPRT(AP)": 3800.0}}, {"type": "Feature", "id": "LINK (110,1006,1007)", "geometry": {"type": "LineString", "coordinates": [[14.4116, 50.090992, 1.0], [14.41244, 50.090992, 0.0], [14.4132, 50.090992, 1.0]]}, "properties": {"NO": 110, "FROMNODENO": 1006, "TONODENO": 1007, "TYPENO": 74, "TSYSSET": "1.O,2.S,3.T,4.B", "LENGTH": "0.180km", "NUMLANES": 1, "CAPPRT": 15000, "V0PRT": "50km/h", "VOLVEHPRT(AP)": 4200.0, "R_NO": 110, "R_FROMNODENO": 1007, "R_TONODENO": 1006, "R_TYPENO": 74, "R_TSYSSET": "1.O,2.S,3.T,4.B", "R_LENGTH": "0.180km", "R_NUMLANES": 1, "R_CAPPRT": 15000, "R_V0PRT": "50km/h", "R_VOLVEHPRT(AP)": 3800.0}}, {"type": "Feature", "id": "LINK (111,1006,1010)", "geometry": {"type": "LineString", "coordinates": [[14.4116, 50.090992, 1.0], [14.41164, 50.091488, 0.0], [14.4116, 50.091984, 1.0]]}, "properties": {"NO": 111, "FROMNODENO": 1006, "TONODENO": 1010, "TYPENO": 74, "TSYSSET": "", "LENGTH": "0.180km", "NUMLANES": 0, "CAPPRT": 15000, "V0PRT": "50km/h", "VOLVEHPRT(AP)": 4200.0, "R_NO": 111, "R_FROMNODENO": 1010, "R_TONODENO": 1006, "R_TYPENO": 74, "R_TSYSSET": "", "R_LENGTH": "0.180km", "R_NUMLANES": 0, "R_CAPPRT": 15000, "R_V0PRT": "50km/h", "R_VOLVEHPRT(AP)": 3800.0}}, {"type": "Feature", "id": "LINK (112,1007,1008)", "geometry": {"type": "LineString", "coordinates": [[14.4132, 50.090992, 1.0], [14.41404, 50.090992, 0.0], [14.4148, 50.090992, 1.0]]}, "properties": {"NO": 112, "FROMNODENO": 1007, "TONODENO": 1008, "TYPENO": 74, "TSYSSET": "1.O,2.S,3.T,4.B", "LENGTH": "0.180km", "NUMLANES": 1, "CAPPRT": 15000, "V0PRT": "50km/h", "VOLVEHPRT(AP)": 4200.0, "R_NO": 112, "R_FROMNODENO": 1008, "R_TONODENO": 1007, "R_TYPENO": 74, "R_TSYSSET": "1.O,2.S,3.T,4.B", "R_LENGTH": "0.180km", "R_NUMLANES": 1, "R_CAPPRT": 15000, "R_V0PRT": "50km/h", "R_VOLVEHPRT(AP)": 3800.0}}, {"type": "Feature", "id": "LINK (113,1007,1011)", "geometry": {"type": "LineString", "coordinates": [[14.4132, 50.090992, 1.0], [14.41324, 50.091488, 0.0], [14.4132, 50.091984, 1.0]]}, "properties": {"NO": 113, "FROMNODENO": 1007, "TONODENO": 1011, "TYPENO": 74, "TSYSSET": "1.O,2.S,3.T,4.B", "LENGTH": "0.180km", "NUMLANES": 1, "CAPPRT": 15000, "V0PRT": "50km/h", "VOLVEHPRT(AP)": 4200.0, "R_NO": 113, "R_FROMNODENO": 1011, "R_TONODENO": 1007, "R_TYPENO": 74, "R_TSYSSET": "1.O,2.S,3.T,4.B", "R_LENGTH": "0.180km", "R_NUMLANES": 1, "R_CAPPRT": 15000, "R_V0PRT": "50km/h", "R_VOLVEHPRT(AP)": 3800.0}}, {"type": "Feature", "id": "LINK (114,1008,1012)", "geometry": {"type": "LineString", "coordinates": [[14.4148, 50.090992, 1.0], [14.41484, 50.091488, 0.0], [14.4148, 50.091984, 1.0]]}, "properties": {"NO": 114, "FROMNODENO": 1008, "TONODENO": 1012, "TYPENO": 74, "TSYSSET": "1.O,2.S,3.T,4.B", "LENGTH": "0.180km", "NUMLANES": 1, "CAPPRT": 15000, "V0PRT": "50km/h", "VOLVEHPRT(AP)": 4200.0, "R_NO": 114, "R_FROMNODENO": 1012, "R_TONODENO": 1008, "R_TYPENO": 74, "R_TSYSSET": "1.O,2.S,3.T,4.B", "R_LENGTH": "0.180km", "R_NUMLANES": 1, "R_CAPPRT": 15000, "R_V0PRT": "50km/h", "R_VOLVEHPRT(AP)": 3800.0}}, {"type": "Feature", "id": "LINK (115,1009,1010)", "geometry": {"type": "LineString", "coordinates": [[14.41, 50.091984, 1.0], [14.41084, 50.091984, 0.0], [14.4116, 50.091984, 1.0]]}, "properties": {"NO": 115, "FROMNODENO": 1009, "TONODENO": 1010, "TYPENO": 74, "TSYSSET": "1.O,2.S,3.T,4.B", "LENGTH": "0.180km", "NUMLANES": 1, "CAPPRT": 15000, "V0PRT": "50km/h", "VOLVEHPRT(AP)": 4200.0, "R_NO": 115, "R_FROMNODENO": 1010, "R_TONODENO": 1009, "R_TYPENO": 74, "R_TSYSSET": "1.O,2.S,3.T,4.B", "R_LENGTH": "0.180km", "R_NUMLANES": 1, "R_CAPPRT": 15000, "R_V0PRT": "50km/h", "R_VOLVEHPRT(AP)": 3800.0}}, {"type": "Feature", "id": "LINK (116,1010,1011)", "geometry": {"type": "LineString", "coordinates": [[14.4116, 50.091984, 1.0], [14.41244, 50.091984, 0.0], [14.4132, 50.091984, 1.0]]}, "properties": {"NO": 116, "FROMNODENO": 1010, "TONODENO": 1011, "TYPENO": 74, "TSYSSET": "1.O,2.S,3.T,4.B", "LENGTH": "0.180km", "NUMLANES": 1, "CAPPRT": 15000, "V0PRT": "50km/h", "VOLVEHPRT(AP)": 4200.0, "R_NO": 116, "R_FROMNODENO": 1011, "R_TONODENO": 1010, "R_TYPENO": 74, "R_TSYSSET": "1.O,2.S,3.T,4.B", "R_LENGTH": "0.180km", "R_NUMLANES": 1, "R_CAPPRT": 15000, "R_V0PRT": "50km/h", "R_VOLVEHPRT(AP)": 3800.0}}, {"type": "Feature", "id": "LINK (117,1011,1012)", "geometry": {"type": "LineString", "coordinates": [[14.4132, 50.091984, 1.0], [14.41404, 50.091984, 0.0], [14.4148, 50.091984, 1.0]]}, "properties": {"NO": 117, "FROMNODENO": 1011, "TONODENO": 1012, "TYPENO": 74, "TSYSSET": "1.O,2.S,3.T,4.B", "LENGTH": "0.180km", "NUMLANES": 1, "CAPPRT": 15000, "V0PRT": "50km/h", "VOLVEHPRT(AP)": 4200.0, "R_NO": 117, "R_FROMNODENO": 1012, "R_TONODENO": 1011, "R_TYPENO": 74, "R_TSYSSET": "1.O,2.S,3.T,4.B", "R_LENGTH": "0.180km", "R_NUMLANES": 1, "R_CAPPRT": 15000, "R_V0PRT": "50km/h", "R_VOLVEHPRT(AP)": 3800.0}}]}